TIANMU-1 21             
1 58662U 23208C   26068.90848455  .00012722  00000+0  40064-3 0  9997
2 58662  97.4378 187.7048 0005980 317.2488  42.8288 15.33041299122348
CUBESX-HSE 3 (RS42S)    
1 57178U 23091N   26068.95654307  .00016417  00000+0  59056-3 0  9990
2 57178  97.5203 133.4295 0012719  86.5376 273.7318 15.28614700149254
